COSMOS 2251 DEB         
1 37503U 93036BMG 17345.77633821  .00012875  00000-0  93509-3 0  9998
2 37503  74.0050 314.6875 0002008  58.4293 301.7092 15.03910242417923
